{
  "norad_id": 59122,
  "name": "NUSAT-44 (MARIA MITCHELL)",
  "history": [
    {
      "epoch": "2026-03-21T13:36:39.122208",
      "apogee_km": 481.03065533249355,
      "perigee_km": 469.9834035942822,
      "latitude_deg": -83.93881680128561,
      "longitude_deg": -165.35653087985702,
      "semi_major_axis_km": 6853.644029463388,
      "eccentricity": 0.00080594,
      "inclination_deg": 97.5325,
      "raan_deg": 219.5685,
      "arg_perigee_deg": 173.3363,
      "mean_anomaly_deg": 186.7986,
      "mean_motion_rev_day": 15.30102223
    }
  ]
}