{"fetched_at":"2026-03-29T02:12:04Z","count":15717,"tles":[{"name":"NUSAT-44 (MARIA MITCHE*)","line1":"1 59122U 24043AA  26080.56711947  .00020530  00000+0  70561-3 0  9999","line2":"2 59122  97.5325 219.5685 0008059 173.3363 186.7986 15.30102223113870","category":"Other"}]}